start=new Date('2022-08-01T00:00:00.000Z').valueOf();
sats=[{"MEAN_MOTION_DOT":"0.00001589","EPHEMERIS_TYPE":"0","RA_OF_ASC_NODE":"71.2581","BSTAR":"0.00011792000000","LAUNCH_DATE":"2022-02-03","MEAN_ANOMALY":"309.2651","OBJECT_NAME":"STARLINK-3166","MEAN_MOTION":"15.08842037","MEAN_MOTION_DDOT":"0.0000000000000","REV_AT_EPOCH":"2800","SITE":"AFETR","APOAPSIS":"541.160","NORAD_CAT_ID":"51462","TIME_SYSTEM":"UTC","PERIOD":"95.437","PERIAPSIS":"538.318","ELEMENT_SET_NO":"999","TLE_LINE1":"1 51462U 22010G   22212.71484859  .00001589  00000-0  11792-3 0  9994","FILE":"3526413","COUNTRY_CODE":"US","RCS_SIZE":"LARGE","GP_ID":"209297160","CLASSIFICATION_TYPE":"U","EPOCH":"2022-07-31T17:09:22.918176","OBJECT_ID":"2022-010G","TLE_LINE2":"2 51462  53.2194  71.2581 0002054  50.8524 309.2651 15.08842037 28007","SEMIMAJOR_AXIS":"6917.874","ECCENTRICITY":"0.00020540","OBJECT_TYPE":"PAYLOAD","ARG_OF_PERICENTER":"50.8524","MEAN_ELEMENT_THEORY":"SGP4","REF_FRAME":"TEME","INCLINATION":"53.2194","CENTER_NAME":"EARTH","DECAY_DATE":null},{"OBJECT_TYPE":"PAYLOAD","ARG_OF_PERICENTER":"68.8353","MEAN_ELEMENT_THEORY":"SGP4","REF_FRAME":"TEME","INCLINATION":"53.2188","CENTER_NAME":"EARTH","DECAY_DATE":null,"GP_ID":"209273820","EPOCH":"2022-07-31T19:43:03.995328","CLASSIFICATION_TYPE":"U","OBJECT_ID":"2022-010H","SEMIMAJOR_AXIS":"6917.902","TLE_LINE2":"2 51463  53.2188  70.7673 0001541  68.8353 291.2803 15.08832824 28468","ECCENTRICITY":"0.00015410","REV_AT_EPOCH":"2846","SITE":"AFETR","APOAPSIS":"540.833","NORAD_CAT_ID":"51463","TIME_SYSTEM":"UTC","PERIOD":"95.438","PERIAPSIS":"538.701","ELEMENT_SET_NO":"999","TLE_LINE1":"1 51463U 22010H   22212.82157402  .00000190  00000-0  30062-4 0  9997","FILE":"3526384","COUNTRY_CODE":"US","RCS_SIZE":"LARGE","MEAN_MOTION_DOT":"0.00000190","EPHEMERIS_TYPE":"0","RA_OF_ASC_NODE":"70.7673","LAUNCH_DATE":"2022-02-03","BSTAR":"0.00003006200000","MEAN_ANOMALY":"291.2803","OBJECT_NAME":"STARLINK-3419","MEAN_MOTION":"15.08832824","MEAN_MOTION_DDOT":"0.0000000000000"},{"DECAY_DATE":null,"CENTER_NAME":"EARTH","INCLINATION":"53.2185","REF_FRAME":"TEME","MEAN_ELEMENT_THEORY":"SGP4","ARG_OF_PERICENTER":"49.0312","OBJECT_TYPE":"PAYLOAD","ECCENTRICITY":"0.00022130","TLE_LINE2":"2 51464  53.2185  71.5811 0002213  49.0312 311.0871 15.08833860 28492","SEMIMAJOR_AXIS":"6917.899","OBJECT_ID":"2022-010J","GP_ID":"209297661","EPOCH":"2022-07-31T15:23:24.527904","CLASSIFICATION_TYPE":"U","COUNTRY_CODE":"US","RCS_SIZE":"LARGE","FILE":"3526413","TLE_LINE1":"1 51464U 22010J   22212.64125611  .00000392  00000-0  42721-4 0  9994","ELEMENT_SET_NO":"999","PERIAPSIS":"538.233","PERIOD":"95.438","TIME_SYSTEM":"UTC","NORAD_CAT_ID":"51464","APOAPSIS":"541.295","SITE":"AFETR","REV_AT_EPOCH":"2849","MEAN_MOTION_DDOT":"0.0000000000000","MEAN_MOTION":"15.08833860","OBJECT_NAME":"STARLINK-3189","MEAN_ANOMALY":"311.0871","LAUNCH_DATE":"2022-02-03","BSTAR":"0.00004272100000","EPHEMERIS_TYPE":"0","RA_OF_ASC_NODE":"71.5811","MEAN_MOTION_DOT":"0.00000392"},{"MEAN_MOTION_DOT":"-0.00000163","RA_OF_ASC_NODE":"71.2982","EPHEMERIS_TYPE":"0","LAUNCH_DATE":"2022-02-03","BSTAR":"0.00000783330000","OBJECT_NAME":"STARLINK-3401","MEAN_ANOMALY":"302.6590","MEAN_MOTION":"15.08840518","MEAN_MOTION_DDOT":"0.0000000000000","REV_AT_EPOCH":"2850","APOAPSIS":"541.011","SITE":"AFETR","NORAD_CAT_ID":"51465","TIME_SYSTEM":"UTC","PERIOD":"95.438","PERIAPSIS":"538.476","ELEMENT_SET_NO":"999","TLE_LINE1":"1 51465U 22010K   22212.70380803 -.00000163  00000-0  78333-5 0  9994","FILE":"3526413","RCS_SIZE":"LARGE","COUNTRY_CODE":"US","GP_ID":"209298407","CLASSIFICATION_TYPE":"U","EPOCH":"2022-07-31T16:53:29.013792","OBJECT_ID":"2022-010K","SEMIMAJOR_AXIS":"6917.879","TLE_LINE2":"2 51465  53.2185  71.2982 0001832  57.4579 302.6590 15.08840518 28507","ECCENTRICITY":"0.00018320","OBJECT_TYPE":"PAYLOAD","ARG_OF_PERICENTER":"57.4579","MEAN_ELEMENT_THEORY":"SGP4","REF_FRAME":"TEME","INCLINATION":"53.2185","CENTER_NAME":"EARTH","DECAY_DATE":null},{"MEAN_MOTION":"15.08845861","MEAN_MOTION_DDOT":"0.0000000000000","MEAN_MOTION_DOT":"0.00000803","RA_OF_ASC_NODE":"70.7935","EPHEMERIS_TYPE":"0","LAUNCH_DATE":"2022-02-03","BSTAR":"0.00006855000000","MEAN_ANOMALY":"301.7755","OBJECT_NAME":"STARLINK-3178","PERIAPSIS":"538.352","ELEMENT_SET_NO":"999","TLE_LINE1":"1 51467U 22010M   22212.81788500  .00000803  00000-0  68550-4 0  9993","FILE":"3526413","RCS_SIZE":"LARGE","COUNTRY_CODE":"US","REV_AT_EPOCH":"2771","APOAPSIS":"541.103","SITE":"AFETR","NORAD_CAT_ID":"51467","TIME_SYSTEM":"UTC","PERIOD":"95.437","TLE_LINE2":"2 51467  53.2176  70.7935 0001988  58.3431 301.7755 15.08845861 27711","SEMIMAJOR_AXIS":"6917.862","ECCENTRICITY":"0.00019880","EPOCH":"2022-07-31T19:37:45.264000","GP_ID":"209296661","CLASSIFICATION_TYPE":"U","OBJECT_ID":"2022-010M","ARG_OF_PERICENTER":"58.3431","MEAN_ELEMENT_THEORY":"SGP4","REF_FRAME":"TEME","INCLINATION":"53.2176","CENTER_NAME":"EARTH","DECAY_DATE":null,"OBJECT_TYPE":"PAYLOAD"},{"PERIOD":"95.437","TIME_SYSTEM":"UTC","NORAD_CAT_ID":"51468","SITE":"AFETR","APOAPSIS":"541.103","REV_AT_EPOCH":"2768","COUNTRY_CODE":"US","RCS_SIZE":"LARGE","FILE":"3526413","TLE_LINE1":"1 51468U 22010N   22212.63021150  .00000124  00000-0  25902-4 0  9995","ELEMENT_SET_NO":"999","PERIAPSIS":"538.377","OBJECT_NAME":"STARLINK-3174","MEAN_ANOMALY":"296.8997","LAUNCH_DATE":"2022-02-03","BSTAR":"0.00002590200000","RA_OF_ASC_NODE":"71.6402","EPHEMERIS_TYPE":"0","MEAN_MOTION_DOT":"0.00000124","MEAN_MOTION_DDOT":"0.0000000000000","MEAN_MOTION":"15.08841811","OBJECT_TYPE":"PAYLOAD","DECAY_DATE":null,"CENTER_NAME":"EARTH","INCLINATION":"53.2182","REF_FRAME":"TEME","MEAN_ELEMENT_THEORY":"SGP4","ARG_OF_PERICENTER":"63.2196","OBJECT_ID":"2022-010N","GP_ID":"209296911","CLASSIFICATION_TYPE":"U","EPOCH":"2022-07-31T15:07:30.273600","ECCENTRICITY":"0.00019700","SEMIMAJOR_AXIS":"6917.875","TLE_LINE2":"2 51468  53.2182  71.6402 0001970  63.2196 296.8997 15.08841811 27681"},{"OBJECT_ID":"2022-010P","GP_ID":"209298161","EPOCH":"2022-07-31T15:28:42.263904","CLASSIFICATION_TYPE":"U","TLE_LINE2":"2 51469  53.2180  71.5574 0001958  54.1610 305.9564 15.08841587 27991","SEMIMAJOR_AXIS":"6917.876","ECCENTRICITY":"0.00019580","OBJECT_TYPE":"PAYLOAD","INCLINATION":"53.2180","CENTER_NAME":"EARTH","DECAY_DATE":null,"ARG_OF_PERICENTER":"54.1610","MEAN_ELEMENT_THEORY":"SGP4","REF_FRAME":"TEME","EPHEMERIS_TYPE":"0","RA_OF_ASC_NODE":"71.5574","LAUNCH_DATE":"2022-02-03","BSTAR":"-0.00001286700000","OBJECT_NAME":"STARLINK-3182","MEAN_ANOMALY":"305.9564","MEAN_MOTION_DOT":"-0.00000493","MEAN_MOTION":"15.08841587","MEAN_MOTION_DDOT":"0.0000000000000","SITE":"AFETR","APOAPSIS":"541.095","NORAD_CAT_ID":"51469","TIME_SYSTEM":"UTC","PERIOD":"95.437","REV_AT_EPOCH":"2799","TLE_LINE1":"1 51469U 22010P   22212.64493361 -.00000493  00000-0 -12867-4 0  9991","FILE":"3526413","RCS_SIZE":"LARGE","COUNTRY_CODE":"US","PERIAPSIS":"538.386","ELEMENT_SET_NO":"999"},{"MEAN_ELEMENT_THEORY":"SGP4","REF_FRAME":"TEME","ARG_OF_PERICENTER":"55.6832","DECAY_DATE":null,"INCLINATION":"53.2187","CENTER_NAME":"EARTH","OBJECT_TYPE":"PAYLOAD","ECCENTRICITY":"0.00020720","SEMIMAJOR_AXIS":"6917.871","TLE_LINE2":"2 51471  53.2187  65.6291 0002072  55.6832 304.4356 15.08843083 28099","CLASSIFICATION_TYPE":"U","GP_ID":"209297908","EPOCH":"2022-07-31T20:28:46.191360","OBJECT_ID":"2022-010R","ELEMENT_SET_NO":"999","PERIAPSIS":"538.303","FILE":"3526413","RCS_SIZE":"LARGE","COUNTRY_CODE":"US","TLE_LINE1":"1 51471U 22010R   22212.85331240  .00000785  00000-0  67405-4 0  9994","REV_AT_EPOCH":"2809","TIME_SYSTEM":"UTC","PERIOD":"95.437","SITE":"AFETR","APOAPSIS":"541.169","NORAD_CAT_ID":"51471","MEAN_MOTION_DDOT":"0.0000000000000","MEAN_MOTION":"15.08843083","MEAN_MOTION_DOT":"0.00000785","LAUNCH_DATE":"2022-02-03","BSTAR":"0.00006740500000","OBJECT_NAME":"STARLINK-3165","MEAN_ANOMALY":"304.4356","RA_OF_ASC_NODE":"65.6291","EPHEMERIS_TYPE":"0"},{"MEAN_MOTION_DOT":"-0.00000463","RA_OF_ASC_NODE":"71.3622","EPHEMERIS_TYPE":"0","MEAN_ANOMALY":"300.7075","OBJECT_NAME":"STARLINK-3415","BSTAR":"-0.00001100300000","LAUNCH_DATE":"2022-02-03","MEAN_MOTION":"15.08836602","MEAN_MOTION_DDOT":"0.0000000000000","REV_AT_EPOCH":"2800","NORAD_CAT_ID":"51472","APOAPSIS":"540.902","SITE":"AFETR","PERIOD":"95.438","TIME_SYSTEM":"UTC","PERIAPSIS":"538.609","ELEMENT_SET_NO":"999","TLE_LINE1":"1 51472U 22010S   22212.69277251 -.00000463  00000-0 -11003-4 0  9996","COUNTRY_CODE":"US","RCS_SIZE":"LARGE","FILE":"3526413","EPOCH":"2022-07-31T16:37:35.544864","GP_ID":"209297161","CLASSIFICATION_TYPE":"U","OBJECT_ID":"2022-010S","TLE_LINE2":"2 51472  53.2188  71.3622 0001657  59.4080 300.7075 15.08836602 28005","SEMIMAJOR_AXIS":"6917.891","ECCENTRICITY":"0.00016570","OBJECT_TYPE":"PAYLOAD","ARG_OF_PERICENTER":"59.4080","REF_FRAME":"TEME","MEAN_ELEMENT_THEORY":"SGP4","CENTER_NAME":"EARTH","INCLINATION":"53.2188","DECAY_DATE":null},{"OBJECT_ID":"2022-016A","EPOCH":"2022-07-31T22:00:00.999936","GP_ID":"209297921","CLASSIFICATION_TYPE":"U","SEMIMAJOR_AXIS":"6917.821","TLE_LINE2":"2 51714  53.2174 120.3543 0002557  64.9979  56.9789 15.08859415  1307","ECCENTRICITY":"0.00025570","OBJECT_TYPE":"PAYLOAD","CENTER_NAME":"EARTH","INCLINATION":"53.2174","DECAY_DATE":null,"ARG_OF_PERICENTER":"64.9979","REF_FRAME":"TEME","MEAN_ELEMENT_THEORY":"SGP4","EPHEMERIS_TYPE":"0","RA_OF_ASC_NODE":"120.3543","OBJECT_NAME":"STARLINK-3528","MEAN_ANOMALY":"56.9789","LAUNCH_DATE":"2022-02-21","BSTAR":"-0.00176870000000","MEAN_MOTION_DOT":"-0.00028344","MEAN_MOTION":"15.08859415","MEAN_MOTION_DDOT":"0.0000000000000","NORAD_CAT_ID":"51714","APOAPSIS":"541.455","SITE":"AFETR","PERIOD":"95.436","TIME_SYSTEM":"UTC","REV_AT_EPOCH":"130","TLE_LINE1":"1 51714U 22016A   22212.91667824 -.00028344  00000-0 -17687-2 0  9995","COUNTRY_CODE":"US","RCS_SIZE":"LARGE","FILE":"3526413","PERIAPSIS":"537.917","ELEMENT_SET_NO":"999"}];
